[
    {
        "Altitude(m)": 570588.022997993,
        "Argument of Periapsis(deg)": 0.013245982221427002,
        "Eccentricity": 0.0,
        "Inclination(deg)": 53.0,
        "Latitude(deg)": -49.9359190287133,
        "Longitude(deg)": -108.56284120745971,
        "Mean Anomaly(deg)": -107.08951426484481,
        "RAAN(deg)": 109.98028673705603,
        "Satellite Name": "Starlink Shell 1 498",
        "Satellite Number": 498,
        "Semi-Major Axis(m)": 6931778.249405717,
        "Time(s)": 380
    },
    {
        "Altitude(m)": 570676.6385733777,
        "Argument of Periapsis(deg)": 0.013594560700938237,
        "Eccentricity": 0.0,
        "Inclination(deg)": 53.0,
        "Latitude(deg)": -50.1589800926151,
        "Longitude(deg)": -107.69758647618782,
        "Mean Anomaly(deg)": -106.46268306128816,
        "RAAN(deg)": 109.97976796697856,
        "Satellite Name": "Starlink Shell 1 498",
        "Satellite Number": 498,
        "Semi-Major Axis(m)": 6931778.249405717,
        "Time(s)": 390
    },
    {
        "Altitude(m)": 570762.239021546,
        "Argument of Periapsis(deg)": 0.013943139180449475,
        "Eccentricity": 0.0,
        "Inclination(deg)": 53.0,
        "Latitude(deg)": -50.37489273689104,
        "Longitude(deg)": -106.82400935589618,
        "Mean Anomaly(deg)": -105.83585185773136,
        "RAAN(deg)": 109.97924919690108,
        "Satellite Name": "Starlink Shell 1 498",
        "Satellite Number": 498,
        "Semi-Major Axis(m)": 6931778.249405717,
        "Time(s)": 400
    },
    {
        "Altitude(m)": 570844.7902810744,
        "Argument of Periapsis(deg)": 0.014291717659960712,
        "Eccentricity": 0.0,
        "Inclination(deg)": 53.0,
        "Latitude(deg)": -50.58353809529991,
        "Longitude(deg)": -105.94224700821104,
        "Mean Anomaly(deg)": -105.2090206541747,
        "RAAN(deg)": 109.9787304268236,
        "Satellite Name": "Starlink Shell 1 498",
        "Satellite Number": 498,
        "Semi-Major Axis(m)": 6931778.249405717,
        "Time(s)": 410
    },
    {
        "Altitude(m)": 570924.2594929117,
        "Argument of Periapsis(deg)": 0.014640296139471948,
        "Eccentricity": 0.0,
        "Inclination(deg)": 53.0,
        "Latitude(deg)": -50.78479884056908,
        "Longitude(deg)": -105.05245264756974,
        "Mean Anomaly(deg)": -104.58218945061788,
        "RAAN(deg)": 109.97821165674615,
        "Satellite Name": "Starlink Shell 1 498",
        "Satellite Number": 498,
        "Semi-Major Axis(m)": 6931778.249405717,
        "Time(s)": 420
    },
    {
        "Altitude(m)": 571000.6150146695,
        "Argument of Periapsis(deg)": 0.014988874618983185,
        "Eccentricity": 0.0,
        "Inclination(deg)": 53.0,
        "Latitude(deg)": -50.97855944368596,
        "Longitude(deg)": -104.15479528816753,
        "Mean Anomaly(deg)": -103.95535824706121,
        "RAAN(deg)": 109.97769288666868,
        "Satellite Name": "Starlink Shell 1 498",
        "Satellite Number": 498,
        "Semi-Major Axis(m)": 6931778.249405717,
        "Time(s)": 430
    },
    {
        "Altitude(m)": 571073.8264343587,
        "Argument of Periapsis(deg)": 0.015337453098494424,
        "Eccentricity": 0.0,
        "Inclination(deg)": 53.0,
        "Latitude(deg)": -51.16470643984027,
        "Longitude(deg)": -103.2494594348716,
        "Mean Anomaly(deg)": -103.32852704350456,
        "RAAN(deg)": 109.9771741165912,
        "Satellite Name": "Starlink Shell 1 498",
        "Satellite Number": 498,
        "Semi-Major Axis(m)": 6931778.249405717,
        "Time(s)": 440
    },
    {
        "Altitude(m)": 571143.864583609,
        "Argument of Periapsis(deg)": 0.01568603157800566,
        "Eccentricity": 0.0,
        "Inclination(deg)": 53.0,
        "Latitude(deg)": -51.3431286999809,
        "Longitude(deg)": -102.33664622612167,
        "Mean Anomaly(deg)": -102.70169583994782,
        "RAAN(deg)": 109.97665534651372,
        "Satellite Name": "Starlink Shell 1 498",
        "Satellite Number": 498,
        "Semi-Major Axis(m)": 6931778.249405717,
        "Time(s)": 450
    },
    {
        "Altitude(m)": 571210.701550341,
        "Argument of Periapsis(deg)": 0.0160346100575169,
        "Eccentricity": 0.0,
        "Inclination(deg)": 53.0,
        "Latitude(deg)": -51.513717706841035,
        "Longitude(deg)": -101.41657299842134,
        "Mean Anomaly(deg)": -102.07486463639108,
        "RAAN(deg)": 109.97613657643625,
        "Satellite Name": "Starlink Shell 1 498",
        "Satellite Number": 498,
        "Semi-Major Axis(m)": 6931778.249405717,
        "Time(s)": 460
    },
    {
        "Altitude(m)": 571274.3106908588,
        "Argument of Periapsis(deg)": 0.016383188537028134,
        "Eccentricity": 0.0,
        "Inclination(deg)": 53.0,
        "Latitude(deg)": -51.676367834171806,
        "Longitude(deg)": -100.48947278094796,
        "Mean Anomaly(deg)": -101.44803343283438,
        "RAAN(deg)": 109.97561780635877,
        "Satellite Name": "Starlink Shell 1 498",
        "Satellite Number": 498,
        "Semi-Major Axis(m)": 6931778.249405717,
        "Time(s)": 470
    },
    {
        "Altitude(m)": 571334.6666414429,
        "Argument of Periapsis(deg)": 0.01673176701653937,
        "Eccentricity": 0.0,
        "Inclination(deg)": 53.0,
        "Latitude(deg)": -51.83097662782049,
        "Longitude(deg)": -99.55559522919141,
        "Mean Anomaly(deg)": -100.82120222927762,
        "RAAN(deg)": 109.97509903628132,
        "Satellite Name": "Starlink Shell 1 498",
        "Satellite Number": 498,
        "Semi-Major Axis(m)": 6931778.249405717,
        "Time(s)": 480
    },
    {
        "Altitude(m)": 571391.745329323,
        "Argument of Periapsis(deg)": 0.017080345496050607,
        "Eccentricity": 0.0,
        "Inclination(deg)": 53.0,
        "Latitude(deg)": -51.97744508719425,
        "Longitude(deg)": -98.61520596835089,
        "Mean Anomaly(deg)": -100.19437102572097,
        "RAAN(deg)": 109.97458026620384,
        "Satellite Name": "Starlink Shell 1 498",
        "Satellite Number": 498,
        "Semi-Major Axis(m)": 6931778.249405717,
        "Time(s)": 490
    },
    {
        "Altitude(m)": 571445.5239831305,
        "Argument of Periapsis(deg)": 0.017428923975561842,
        "Eccentricity": 0.0,
        "Inclination(deg)": 53.0,
        "Latitude(deg)": -52.11567794556106,
        "Longitude(deg)": -97.66858585638576,
        "Mean Anomaly(deg)": -99.56753982216419,
        "RAAN(deg)": 109.97406149612637,
        "Satellite Name": "Starlink Shell 1 498",
        "Satellite Number": 498,
        "Semi-Major Axis(m)": 6931778.249405717,
        "Time(s)": 500
    },
    {
        "Altitude(m)": 571495.9811427761,
        "Argument of Periapsis(deg)": 0.01777750245507308,
        "Eccentricity": 0.0,
        "Inclination(deg)": 53.0,
        "Latitude(deg)": -52.245583947563155,
        "Longitude(deg)": -96.7160316772281,
        "Mean Anomaly(deg)": -98.94070861860754,
        "RAAN(deg)": 109.97354272604889,
        "Satellite Name": "Starlink Shell 1 498",
        "Satellite Number": 498,
        "Semi-Major Axis(m)": 6931778.249405717,
        "Time(s)": 510
    },
    {
        "Altitude(m)": 571543.0966687325,
        "Argument of Periapsis(deg)": 0.018126080934584315,
        "Eccentricity": 0.0,
        "Inclination(deg)": 53.0,
        "Latitude(deg)": -52.367076122268806,
        "Longitude(deg)": -95.75785523662772,
        "Mean Anomaly(deg)": -98.31387741505078,
        "RAAN(deg)": 109.97302395597141,
        "Satellite Name": "Starlink Shell 1 498",
        "Satellite Number": 498,
        "Semi-Major Axis(m)": 6931778.249405717,
        "Time(s)": 520
    },
    {
        "Altitude(m)": 571586.8517507688,
        "Argument of Periapsis(deg)": 0.018474659414095554,
        "Eccentricity": 0.0,
        "Inclination(deg)": 53.0,
        "Latitude(deg)": -52.48007204996539,
        "Longitude(deg)": -94.79438237310207,
        "Mean Anomaly(deg)": -97.68704621149408,
        "RAAN(deg)": 109.97250518589394,
        "Satellite Name": "Starlink Shell 1 498",
        "Satellite Number": 498,
        "Semi-Major Axis(m)": 6931778.249405717,
        "Time(s)": 530
    },
    {
        "Altitude(m)": 571627.2289161057,
        "Argument of Periapsis(deg)": 0.018823237893606792,
        "Eccentricity": 0.0,
        "Inclination(deg)": 53.0,
        "Latitude(deg)": -52.584494121095624,
        "Longitude(deg)": -93.82595339535101,
        "Mean Anomaly(deg)": -97.06021500793736,
        "RAAN(deg)": 109.97198641581649,
        "Satellite Name": "Starlink Shell 1 498",
        "Satellite Number": 498,
        "Semi-Major Axis(m)": 6931778.249405717,
        "Time(s)": 540
    },
    {
        "Altitude(m)": 571664.2120369754,
        "Argument of Periapsis(deg)": 0.019171816373118027,
        "Eccentricity": 0.0,
        "Inclination(deg)": 53.0,
        "Latitude(deg)": -52.68026978533417,
        "Longitude(deg)": -92.85292192300832,
        "Mean Anomaly(deg)": -96.4333838043806,
        "RAAN(deg)": 109.971467645739,
        "Satellite Name": "Starlink Shell 1 498",
        "Satellite Number": 498,
        "Semi-Major Axis(m)": 6931778.249405717,
        "Time(s)": 550
    },
    {
        "Altitude(m)": 571697.7863376046,
        "Argument of Periapsis(deg)": 0.019520394852629266,
        "Eccentricity": 0.0,
        "Inclination(deg)": 53.0,
        "Latitude(deg)": -52.76733178922012,
        "Longitude(deg)": -91.87565364373037,
        "Mean Anomaly(deg)": -95.80655260082395,
        "RAAN(deg)": 109.97094887566152,
        "Satellite Name": "Starlink Shell 1 498",
        "Satellite Number": 498,
        "Semi-Major Axis(m)": 6931778.249405717,
        "Time(s)": 560
    }
]